[{"OBJECT_NAME":"STARLINK-35112","OBJECT_ID":"2025-200A","EPOCH":"2026-03-09T17:34:34.600224","MEAN_MOTION":15.05693612,"ECCENTRICITY":0.00035008,"INCLINATION":97.6036,"RA_OF_ASC_NODE":139.7855,"ARG_OF_PERICENTER":25.4618,"MEAN_ANOMALY":334.678,"EPHEMERIS_TYPE":0,"CLASSIFICATION_TYPE":"U","NORAD_CAT_ID":65520,"ELEMENT_SET_NO":999,"REV_AT_EPOCH":2913,"BSTAR":0.0019596167,"MEAN_MOTION_DOT":0.00028363,"MEAN_MOTION_DDOT":0},{"OBJECT_NAME":"AISAT","OBJECT_ID":"2014-034B","EPOCH":"2026-03-09T16:29:04.722144","MEAN_MOTION":15.06703825,"ECCENTRICITY":0.00089151,"INCLINATION":98.2441,"RA_OF_ASC_NODE":333.9816,"ARG_OF_PERICENTER":189.0234,"MEAN_ANOMALY":171.0832,"EPHEMERIS_TYPE":0,"CLASSIFICATION_TYPE":"U","NORAD_CAT_ID":40054,"ELEMENT_SET_NO":999,"REV_AT_EPOCH":63221,"BSTAR":0.00094770343,"MEAN_MOTION_DOT":0.00014038,"MEAN_MOTION_DDOT":0}]
